H1 CPF  1  DLR 2021 02 14 10  5452 technosat            
H2  1704205 6203    42829 2021 02 14 00 00 00 2021 02 21 00 00 00    60 1 1  0 0 0
H9
10 0 59262  28800.000000  0       1974978.929       1484933.078      -6530718.073
10 0 59262  28860.000000  0       2392442.056       1574623.130      -6368711.141
10 0 59262  28920.000000  0       2800655.856       1654125.945      -6179917.456
10 0 59262  28980.000000  0       3197824.445       1723197.662      -5965128.500
10 0 59262  29040.000000  0       3582195.195       1781653.095      -5725244.100
10 0 59262  29100.000000  0       3952066.438       1829366.106      -5461268.946
10 0 59262  29160.000000  0       4305795.012       1866269.689      -5174308.688
10 0 59262  29220.000000  0       4641803.665       1892355.785      -4865565.577
10 0 59262  29280.000000  0       4958588.163       1907674.750      -4536333.623
10 0 59262  29340.000000  0       5254724.128       1912334.549      -4187993.450
10 0 59262  29400.000000  0       5528873.589       1906499.649      -3822006.709
10 0 59262  29460.000000  0       5779791.172       1890389.631      -3439910.188
10 0 59262  29520.000000  0       6006330.009       1864277.513      -3043309.602
10 0 59262  29580.000000  0       6207447.264       1828487.823      -2633872.958
10 0 59262  29640.000000  0       6382209.185       1783394.408      -2213323.607
10 0 59262  29700.000000  0       6529795.679       1729417.967      -1783433.012
10 0 59262  29760.000000  0       6649504.354       1667023.325      -1346013.281
10 0 59262  29820.000000  0       6740754.098       1596716.488       -902909.542
10 0 59262  29880.000000  0       6803088.126       1519041.459       -455992.019
10 0 59262  29940.000000  0       6836176.301       1434576.876         -7147.971
10 0 59262  30000.000000  0       6839816.863       1343932.489        441726.305
10 0 59262  30060.000000  0       6813937.712       1247745.523        888733.542
10 0 59262  30120.000000  0       6758597.138       1146676.842       1331983.660
10 0 59262  30180.000000  0       6673983.857       1041407.008       1769602.005
10 0 59262  30240.000000  0       6560416.319        932632.227       2199737.491
10 0 59262  30300.000000  0       6418341.404        821060.249       2620570.514
10 0 59262  30360.000000  0       6248332.610        707406.254       3030320.706
10 0 59262  30420.000000  0       6051087.690        592388.730       3427254.631
10 0 59262  30480.000000  0       5827425.530        476725.286       3809693.276
10 0 59262  30540.000000  0       5578282.453        361128.584       4176019.027
10 0 59262  30600.000000  0       5304708.242        246302.390       4524682.454
10 0 59262  30660.000000  0       5007861.581        132937.606       4854208.944
10 0 59262  30720.000000  0       4689004.913         21708.395       5163204.930
10 0 59262  30780.000000  0       4349498.825        -86731.579       5450363.696
10 0 59262  30840.000000  0       3990796.015       -191752.722       5714470.734
10 0 59262  30900.000000  0       3614434.958       -292752.851       5954408.708
10 0 59262  30960.000000  0       3222033.207       -389160.404       6169162.071
10 0 59262  31020.000000  0       2815280.358       -480437.504       6357821.208
10 0 59262  31080.000000  0       2395930.756       -566082.780       6519586.153
10 0 59262  31140.000000  0       1965795.915       -645633.958       6653769.923
10 0 59262  31200.000000  0       1526736.657       -718670.277       6759801.392
10 0 59262  31260.000000  0       1080654.994       -784814.653       6837227.640
10 0 59262  31320.000000  0        629485.903       -843735.539       6885715.763
10 0 59262  31380.000000  0        175189.017       -895148.567       6905054.308
10 0 59262  31440.000000  0       -280259.870       -938817.937       6895154.190
10 0 59262  31500.000000  0       -734877.300       -974557.533       6856049.157
10 0 59262  31560.000000  0      -1186680.768      -1002231.752       6787895.791
10 0 59262  31620.000000  0      -1633697.322      -1021756.038       6690972.986
10 0 59262  31680.000000  0      -2073972.132      -1033097.144       6565680.975
10 0 59262  31740.000000  0      -2505577.010      -1036273.111       6412539.902
10 0 59262  31800.000000  0      -2926618.904      -1031352.952       6232187.997
10 0 59262  31860.000000  0      -3335248.386      -1018456.062       6025379.226
10 0 59262  31920.000000  0      -3729667.968       -997751.385       5792980.376
10 0 59262  31980.000000  0      -4108140.230       -969456.300       5535967.700
10 0 59262  32040.000000  0      -4468995.795       -933835.223       5255423.050
10 0 59262  32100.000000  0      -4810640.991       -891197.910       4952529.476
10 0 59262  32160.000000  0      -5131565.211       -841897.514       4628566.420
10 0 59262  32220.000000  0      -5430347.980       -786328.404       4284904.408
10 0 59262  32280.000000  0      -5705665.570       -724923.703       3922999.306
10 0 59262  32340.000000  0      -5956297.208       -658152.610       3544386.223
10 0 59262  32400.000000  0      -6181130.872       -586517.520       3150673.048
10 0 59262  32460.000000  0      -6379168.665       -510550.920       2743533.617
10 0 59262  32520.000000  0      -6549531.703       -430812.075       2324700.469
10 0 59262  32580.000000  0      -6691464.374       -347883.567       1895957.246
10 0 59262  32640.000000  0      -6804337.994       -262367.706       1459130.852
10 0 59262  32700.000000  0      -6887653.842       -174882.824       1016083.368
10 0 59262  32760.000000  0      -6941045.550        -86059.446        568703.793
10 0 59262  32820.000000  0      -6964280.845          3463.600        118899.649
10 0 59262  32880.000000  0      -6957262.616         93043.157       -331411.525
10 0 59262  32940.000000  0      -6920029.281        182035.721       -780310.736
10 0 59262  33000.000000  0      -6852754.439        269801.408      -1225886.071
10 0 59262  33060.000000  0      -6755745.857        355707.891      -1666241.105
10 0 59262  33120.000000  0      -6629443.911        439134.283      -2099503.188
10 0 59262  33180.000000  0      -6474419.432        519474.964      -2523831.739
10 0 59262  33240.000000  0      -6291370.788        596143.304      -2937426.426
10 0 59262  33300.000000  0      -6081120.226        668575.276      -3338535.021
10 0 59262  33360.000000  0      -5844609.692        736232.915      -3725460.870
10 0 59262  33420.000000  0      -5582896.184        798607.601      -4096570.081
10 0 59262  33480.000000  0      -5297146.563        855223.165      -4450298.423
10 0 59262  33540.000000  0      -4988631.867        905638.786      -4785157.824
10 0 59262  33600.000000  0      -4658721.179        949451.656      -5099742.445
10 0 59262  33660.000000  0      -4308875.154        986299.445      -5392734.340
10 0 59262  33720.000000  0      -3940639.193       1015862.507      -5662908.707
10 0 59262  33780.000000  0      -3555636.279       1037865.820      -5909138.719
10 0 59262  33840.000000  0      -3155559.512       1052080.656      -6130399.843
10 0 59262  33900.000000  0      -2742164.508       1058325.992      -6325773.683
10 0 59262  33960.000000  0      -2317261.593       1056469.728      -6494451.503
10 0 59262  34020.000000  0      -1882707.690       1046429.612      -6635737.219
10 0 59262  34080.000000  0      -1440398.172       1028173.872      -6749049.819
10 0 59262  34140.000000  0       -992258.666       1001721.561      -6833925.395
10 0 59262  34200.000000  0       -540236.767        967142.648      -6890018.719
10 0 59262  34260.000000  0        -86293.773        924557.858      -6917104.361
10 0 59262  34320.000000  0        367603.567        874138.231      -6915077.476
10 0 59262  34380.000000  0        819491.430        816104.401      -6883954.222
10 0 59262  34440.000000  0       1267417.350        750725.614      -6823871.585
10 0 59262  34500.000000  0       1709448.476        678318.494      -6735086.650
10 0 59262  34560.000000  0       2143679.675        599245.529      -6617975.522
10 0 59262  34620.000000  0       2568241.593        513913.354      -6473031.858
10 0 59262  34680.000000  0       2981308.621        422770.794      -6300864.857
10 0 59262  34740.000000  0       3381106.572        326306.613      -6102196.812
10 0 59262  34800.000000  0       3765920.177        225047.028      -5877860.318
10 0 59262  34860.000000  0       4134100.381        119553.037      -5628795.003
10 0 59262  34920.000000  0       4484071.373         10417.565      -5356043.930
10 0 59262  34980.000000  0       4814337.481       -101737.611      -5060749.545
10 0 59262  35040.000000  0       5123489.695       -216265.156      -4744149.106
10 0 59262  35100.000000  0       5410211.784       -332495.610      -4407569.739
10 0 59262  35160.000000  0       5673286.075       -449740.988      -4052423.122
10 0 59262  35220.000000  0       5911598.824       -567298.509      -3680199.796
10 0 59262  35280.000000  0       6124145.169       -684454.467      -3292463.127
10 0 59262  35340.000000  0       6310033.643       -800488.217      -2890842.911
10 0 59262  35400.000000  0       6468490.201       -914676.219      -2477028.638
10 0 59262  35460.000000  0       6598861.723      -1026296.133      -2052762.434
10 0 59262  35520.000000  0       6700618.959      -1134630.948      -1619831.766
10 0 59262  35580.000000  0       6773358.916      -1238973.121      -1180061.898
10 0 59262  35640.000000  0       6816806.653      -1338628.710       -735308.158
10 0 59262  35700.000000  0       6830816.512      -1432921.448       -287448.072
10 0 59262  35760.000000  0       6815372.781      -1521196.785        161626.677
10 0 59262  35820.000000  0       6770589.695      -1602825.829        610018.425
10 0 59262  35880.000000  0       6696710.753      -1677209.155       1055831.685
10 0 59262  35940.000000  0       6594107.504      -1743780.512       1497181.245
99
